NORAD_CAT_ID,OBJECT_NAME,OBJECT_TYPE,EPOCH,MEAN_MOTION,ECCENTRICITY,INCLINATION,RA_OF_ASC_NODE,ARG_OF_PERICENTER,MEAN_ANOMALY,BSTAR,MEAN_MOTION_DOT,MEAN_MOTION_DDOT,TLE_LINE0,TLE_LINE1,TLE_LINE2,SEMIMAJOR_AXIS,PERIOD,APOGEE,PERIGEE,DECAYED
53637.0,STARLINK-4396,PAYLOAD,2023-02-05 14:21:02,15.08840885,0.0001255,53.215,248.1811,75.4148,284.6983,7.7072e-05,9.39e-06,0.0,0 STARLINK-4396,1 53637U 22104BB  23036.59795029  .00000939  00000-0  77072-4 0  9991,2 53637  53.2150 248.1811 0001255  75.4148 284.6983 15.08840885 24901,6917.878,95.437,540.611,538.874,0.0
53637.0,STARLINK-4396,PAYLOAD,2023-02-05 22:17:58,15.08842685,0.0001236,53.215,246.6943,73.7737,286.3391,0.00014972,2.096e-05,0.0,0 STARLINK-4396,1 53637U 22104BB  23036.92914959  .00002096  00000-0  14972-3 0  9998,2 53637  53.2150 246.6943 0001236  73.7737 286.3391 15.08842685 25974,6917.872,95.437,540.592,538.882,0.0
53637.0,STARLINK-4396,PAYLOAD,2023-02-06 14:11:49,15.08843889,0.0001245,53.2155,243.7209,76.9897,283.1234,0.00033504,5.049e-05,0.0,0 STARLINK-4396,1 53637U 22104BB  23037.59155082  .00005049  00000-0  33504-3 0  9999,2 53637  53.2155 243.7209 0001245  76.9897 283.1234 15.08843889 26074,6917.869,95.437,540.595,538.872,0.0
53637.0,STARLINK-4396,PAYLOAD,2023-02-06 20:33:22,15.08849486,0.0001233,53.2155,242.5315,76.5429,283.5701,0.00034493,5.207e-05,0.0,0 STARLINK-4396,1 53637U 22104BB  23037.85650854  .00005207  00000-0  34493-3 0  9999,2 53637  53.2155 242.5315 0001233  76.5429 283.5701 15.08849486 25096,6917.851,95.437,540.569,538.863,0.0
53637.0,STARLINK-4396,PAYLOAD,2023-02-07 14:02:37,15.08839857,0.0001242,53.2167,239.2615,85.2372,274.8762,9.2453e-05,1.184e-05,0.0,0 STARLINK-4396,1 53637U 22104BB  23038.58515095  .00001184  00000-0  92453-4 0  9998,2 53637  53.2167 239.2615 0001242  85.2372 274.8762 15.08839857 25203,6917.881,95.438,540.605,538.887,0.0
53637.0,STARLINK-4396,PAYLOAD,2023-02-07 20:24:09,15.08842148,0.0001189,53.2164,238.072,77.9507,282.1618,0.00015336,2.154e-05,0.0,0 STARLINK-4396,1 53637U 22104BB  23038.85011054  .00002154  00000-0  15336-3 0  9996,2 53637  53.2164 238.0720 0001189  77.9507 282.1618 15.08842148 26268,6917.874,95.437,540.561,538.916,0.0
53637.0,STARLINK-4396,PAYLOAD,2023-02-08 05:56:28,15.08833552,3.85e-05,53.2156,236.2875,130.6321,229.4704,-0.00011302,-2.085e-05,0.0,0 STARLINK-4396,1 53637U 22104BB  23039.24754893 -.00002085  00000-0 -11302-3 0  9999,2 53637  53.2156 236.2875 0000385 130.6321 229.4704 15.08833552 26324,6917.9,95.438,540.031,539.499,0.0
53637.0,STARLINK-4396,PAYLOAD,2023-02-08 18:39:33,15.08840151,0.0001094,53.2153,233.9071,87.3469,272.7649,3.0266e-05,1.94e-06,0.0,0 STARLINK-4396,1 53637U 22104BB  23039.77747185  .00000194  00000-0  30266-4 0  9991,2 53637  53.2153 233.9071 0001094  87.3469 272.7649 15.08840151 25389,6917.88,95.438,540.502,538.988,0.0
53637.0,STARLINK-4396,PAYLOAD,2023-02-08 20:14:56,15.08843131,0.0001221,53.2166,233.611,91.25,268.8632,8.5298e-05,1.07e-05,0.0,0 STARLINK-4396,1 53637U 22104BB  23039.84371126  .00001070  00000-0  85298-4 0  9996,2 53637  53.2166 233.6110 0001221  91.2500 268.8632 15.08843131 26410,6917.871,95.437,540.58,538.891,0.0
53637.0,STARLINK-4396,PAYLOAD,2023-02-09 12:08:48,15.08838082,0.0001141,53.2162,230.6361,98.2962,261.8159,0.0001189,1.605e-05,0.0,0 STARLINK-4396,1 53637U 22104BB  23040.50611339  .00001605  00000-0  11890-3 0  9994,2 53637  53.2162 230.6361 0001141  98.2962 261.8159 15.08838082 26518,6917.886,95.438,540.541,538.962,0.0
53637.0,STARLINK-4396,PAYLOAD,2023-02-09 20:05:43,15.08844281,0.0001159,53.2165,229.1494,90.6439,269.4686,0.00019836,2.871e-05,0.0,0 STARLINK-4396,1 53637U 22104BB  23040.83731215  .00002871  00000-0  19836-3 0  9990,2 53637  53.2165 229.1494 0001159  90.6439 269.4686 15.08844281 26567,6917.867,95.437,540.534,538.931,0.0
53637.0,STARLINK-4396,PAYLOAD,2023-02-09 21:41:06,15.08846292,0.0001003,53.2159,228.8509,77.27,282.8404,0.00024102,3.551e-05,0.0,0 STARLINK-4396,1 53637U 22104BB  23040.90354929  .00003551  00000-0  24102-3 0  9999,2 53637  53.2159 228.8509 0001003  77.2700 282.8404 15.08846292 25552,6917.861,95.437,540.42,539.032,0.0
53637.0,STARLINK-4396,PAYLOAD,2023-02-10 00:51:53,15.0885131,0.0001211,53.2163,228.2569,83.128,276.985,0.00035021,5.292e-05,0.0,0 STARLINK-4396,1 53637U 22104BB  23041.03603040  .00005292  00000-0  35021-3 0  9991,2 53637  53.2163 228.2569 0001211  83.1280 276.9850 15.08851310 26598,6917.846,95.437,540.549,538.873,0.0
53637.0,STARLINK-4396,PAYLOAD,2023-02-10 15:10:21,15.08844438,9.69e-05,53.2156,225.5799,88.1814,271.9289,0.00027069,4.023e-05,0.0,0 STARLINK-4396,1 53637U 22104BB  23041.63219352  .00004023  00000-0  27069-3 0  9990,2 53637  53.2156 225.5799 0000969  88.1814 271.9289 15.08844438 25663,6917.867,95.437,540.402,539.061,0.0
53637.0,STARLINK-4396,PAYLOAD,2023-02-10 19:56:30,15.08854639,9.55e-05,53.2156,224.6881,87.0048,273.1054,0.00084908,0.00013256,0.0,0 STARLINK-4396,1 53637U 22104BB  23041.83091192  .00013256  00000-0  84908-3 0  9995,2 53637  53.2156 224.6881 0000955  87.0048 273.1054 15.08854639 26712,6917.836,95.437,540.361,539.04,0.0
53637.0,STARLINK-4396,PAYLOAD,2023-02-10 23:07:17,15.08856467,9.75e-05,53.2156,224.0938,83.7107,276.3996,0.0015096,0.0002383,0.0,0 STARLINK-4396,1 53637U 22104BB  23041.96339195  .00023830  00000-0  15096-2 0  9997,2 53637  53.2156 224.0938 0000975  83.7107 276.3996 15.08856467 25710,6917.83,95.437,540.37,539.021,0.0
53637.0,STARLINK-4396,PAYLOAD,2023-02-11 18:11:54,15.08849746,0.0001262,53.2165,220.5261,88.0424,272.0713,0.001091,0.00017122,0.0,0 STARLINK-4396,1 53637U 22104BB  23042.75827496  .00017122  00000-0  10910-2 0  9998,2 53637  53.2165 220.5261 0001262  88.0424 272.0713 15.08849746 25835,6917.851,95.437,540.589,538.843,0.0
53637.0,STARLINK-4396,PAYLOAD,2023-02-12 05:19:37,15.08844674,0.0001261,53.2166,218.4426,90.9245,269.1892,0.00055587,8.571e-05,0.0,0 STARLINK-4396,1 53637U 22104BB  23043.22195747  .00008571  00000-0  55587-3 0  9996,2 53637  53.2166 218.4426 0001261  90.9245 269.1892 15.08844674 25905,6917.866,95.437,540.603,538.859,0.0
53637.0,STARLINK-4396,PAYLOAD,2023-02-12 11:41:09,15.08837891,0.0001494,53.2165,217.2539,92.4508,267.6656,0.0012877,0.00020264,0.0,0 STARLINK-4396,1 53637U 22104BB  23043.48691903  .00020264  00000-0  12877-2 0  9996,2 53637  53.2165 217.2539 0001494  92.4508 267.6656 15.08837891 26964,6917.887,95.438,540.785,538.718,0.0
53637.0,STARLINK-4396,PAYLOAD,2023-02-13 11:31:56,15.08844656,0.0001415,53.2165,212.7942,82.4016,277.7137,0.00046885,7.183e-05,0.0,0 STARLINK-4396,1 53637U 22104BB  23044.48051971  .00007183  00000-0  46885-3 0  9994,2 53637  53.2165 212.7942 0001415  82.4016 277.7137 15.08844656 26095,6917.866,95.437,540.71,538.752,0.0
53637.0,STARLINK-4396,PAYLOAD,2023-02-14 03:25:49,15.08829467,0.000439,53.215,209.8164,74.9915,285.1563,-6.6166e-05,-1.342e-05,0.0,0 STARLINK-4396,1 53637U 22104BB  23045.14292837 -.00001342  00000-0 -66166-4 0  9994,2 53637  53.2150 209.8164 0004390  74.9915 285.1563 15.08829467 26191,6917.913,95.438,542.815,536.741,0.0
53637.0,STARLINK-4396,PAYLOAD,2023-02-14 17:44:16,15.08846749,6.61e-05,53.2179,207.1462,74.2805,285.826,4.9301e-05,4.97e-06,0.0,0 STARLINK-4396,1 53637U 22104BB  23045.73907536  .00000497  00000-0  49301-4 0  9998,2 53637  53.2179 207.1462 0000661  74.2805 285.8260 15.08846749 26285,6917.86,95.437,540.182,539.267,0.0
53637.0,STARLINK-4396,PAYLOAD,2023-02-15 03:16:35,15.08833474,0.0002418,53.2172,205.3566,80.5039,279.6226,-9.6246e-05,-1.82e-05,0.0,0 STARLINK-4396,1 53637U 22104BB  23046.13652080 -.00001820  00000-0 -96246-4 0  9997,2 53637  53.2172 205.3566 0002418  80.5039 279.6226 15.08833474 26345,6917.9,95.438,541.438,538.093,0.0
53637.0,STARLINK-4396,PAYLOAD,2023-02-15 20:45:49,15.08869953,0.000134,53.2165,202.0889,94.3835,265.7311,0.001248,0.00019646,0.0,0 STARLINK-4396,1 53637U 22104BB  23046.86515204  .00019646  00000-0  12480-2 0  9992,2 53637  53.2165 202.0889 0001340  94.3835 265.7311 15.08869953 26453,6917.789,95.436,540.581,538.727,0.0
53637.0,STARLINK-4396,PAYLOAD,2023-02-16 22:11:58,15.08865068,0.0001113,53.2102,197.3329,146.9768,213.1294,0.0013025,0.00020516,0.0,0 STARLINK-4396,1 53637U 22104BB  23047.92498573  .00020516  00000-0  13025-2 0  9993,2 53637  53.2102 197.3329 0001113 146.9768 213.1294 15.08865068 26614,6917.804,95.436,540.439,538.899,0.0
53637.0,STARLINK-4396,PAYLOAD,2023-02-17 15:41:14,15.08816173,4.6e-05,53.2174,194.0609,58.5244,301.5793,0.0008391,0.00013083,0.0,0 STARLINK-4396,1 53637U 22104BB  23048.65364043  .00013083  00000-0  83910-3 0  9990,2 53637  53.2174 194.0609 0000460  58.5244 301.5793 15.08816173 26720,6917.953,95.439,540.136,539.5,0.0
53637.0,STARLINK-4396,PAYLOAD,2023-02-17 22:02:47,15.0883185,0.0001748,53.2113,192.8701,99.7154,260.4036,0.00076326,0.00011877,0.0,0 STARLINK-4396,1 53637U 22104BB  23048.91860196  .00011877  00000-0  76326-3 0  9991,2 53637  53.2113 192.8701 0001748  99.7154 260.4036 15.08831850 27788,6917.905,95.438,540.98,538.561,0.0
53637.0,STARLINK-4396,PAYLOAD,2023-02-18 15:32:02,15.08827864,5.41e-05,53.2155,189.6014,44.8212,315.2823,-0.00020532,-3.553e-05,0.0,0 STARLINK-4396,1 53637U 22104BB  23049.64724922 -.00003553  00000-0 -20532-3 0  9990,2 53637  53.2155 189.6014 0000541  44.8212 315.2823 15.08827864 26873,6917.917,95.438,540.157,539.408,0.0
53637.0,STARLINK-4396,PAYLOAD,2023-02-19 02:39:44,15.08841095,0.0001321,53.2169,187.5174,87.5693,272.5451,0.00062876,9.733e-05,0.0,0 STARLINK-4396,1 53637U 22104BB  23050.11093124  .00009733  00000-0  62876-3 0  9998,2 53637  53.2169 187.5174 0001321  87.5693 272.5451 15.08841095 26948,6917.877,95.437,540.656,538.828,0.0
53637.0,STARLINK-4396,PAYLOAD,2023-02-19 13:47:26,15.08855318,0.0001422,53.2162,185.4374,82.2378,277.8776,0.000877,0.00013703,0.0,0 STARLINK-4396,1 53637U 22104BB  23050.57460868  .00013703  00000-0  87700-3 0  9996,2 53637  53.2162 185.4374 0001422  82.2378 277.8776 15.08855318 28037,6917.834,95.437,540.682,538.715,0.0
